[
  {
    "COMMENT": "GENERATED VIA SPACETRACK.ORG API",
    "ORIGINATOR": "18 SPCS",
    "NORAD_CAT_ID": "36508",
    "OBJECT_NAME": "CRYOSAT 2",
    "OBJECT_TYPE": "PAYLOAD",
    "CLASSIFICATION_TYPE": "U",
    "INTLDES": "10013A",
    "EPOCH": "2023-06-06 13:42:08",
    "EPOCH_MICROSECONDS": "370144",
    "MEAN_MOTION": "14.51911678",
    "ECCENTRICITY": "0.0006113",
    "INCLINATION": "92.0204",
    "RA_OF_ASC_NODE": "9.8394",
    "ARG_OF_PERICENTER": "110.9175",
    "MEAN_ANOMALY": "249.2687",
    "EPHEMERIS_TYPE": "0",
    "ELEMENT_SET_NO": "999",
    "REV_AT_EPOCH": "69751",
    "BSTAR": "0.000061013",
    "MEAN_MOTION_DOT": "0.00000249",
    "MEAN_MOTION_DDOT": "0",
    "FILE": "3926325",
    "TLE_LINE0": "0 CRYOSAT 2",
    "TLE_LINE1": "1 36508U 10013A   23157.57093021  .00000249  00000-0  61013-4 0  9992",
    "TLE_LINE2": "2 36508  92.0204   9.8394 0006113 110.9175 249.2687 14.51911678697518",
    "OBJECT_ID": "2010-013A",
    "OBJECT_NUMBER": "36508",
    "SEMIMAJOR_AXIS": "7097.549",
    "PERIOD": "99.180",
    "APOGEE": "723.752",
    "PERIGEE": "715.075",
    "DECAYED": "0"
  },
  {
    "COMMENT": "GENERATED VIA SPACETRACK.ORG API",
    "ORIGINATOR": "18 SPCS",
    "NORAD_CAT_ID": "36508",
    "OBJECT_NAME": "CRYOSAT 2",
    "OBJECT_TYPE": "PAYLOAD",
    "CLASSIFICATION_TYPE": "U",
    "INTLDES": "10013A",
    "EPOCH": "2023-06-06 18:39:52",
    "EPOCH_MICROSECONDS": "335648",
    "MEAN_MOTION": "14.51911752",
    "ECCENTRICITY": "0.0006128",
    "INCLINATION": "92.0204",
    "RA_OF_ASC_NODE": "9.8892",
    "ARG_OF_PERICENTER": "110.4929",
    "MEAN_ANOMALY": "249.6936",
    "EPHEMERIS_TYPE": "0",
    "ELEMENT_SET_NO": "999",
    "REV_AT_EPOCH": "69758",
    "BSTAR": "0.0000602",
    "MEAN_MOTION_DOT": "0.00000246",
    "MEAN_MOTION_DDOT": "0",
    "FILE": "3926537",
    "TLE_LINE0": "0 CRYOSAT 2",
    "TLE_LINE1": "1 36508U 10013A   23157.77768907  .00000246  00000-0  60200-4 0  9990",
    "TLE_LINE2": "2 36508  92.0204   9.8892 0006128 110.4929 249.6936 14.51911752697580",
    "OBJECT_ID": "2010-013A",
    "OBJECT_NUMBER": "36508",
    "SEMIMAJOR_AXIS": "7097.548",
    "PERIOD": "99.180",
    "APOGEE": "723.763",
    "PERIGEE": "715.064",
    "DECAYED": "0"
  },
  {
    "COMMENT": "GENERATED VIA SPACETRACK.ORG API",
    "ORIGINATOR": "18 SPCS",
    "NORAD_CAT_ID": "36508",
    "OBJECT_NAME": "CRYOSAT 2",
    "OBJECT_TYPE": "PAYLOAD",
    "CLASSIFICATION_TYPE": "U",
    "INTLDES": "10013A",
    "EPOCH": "2023-06-06 21:58:21",
    "EPOCH_MICROSECONDS": "643392",
    "MEAN_MOTION": "14.51911893",
    "ECCENTRICITY": "0.0006138",
    "INCLINATION": "92.0204",
    "RA_OF_ASC_NODE": "9.9225",
    "ARG_OF_PERICENTER": "110.2125",
    "MEAN_ANOMALY": "249.9742",
    "EPHEMERIS_TYPE": "0",
    "ELEMENT_SET_NO": "999",
    "REV_AT_EPOCH": "69756",
    "BSTAR": "0.00006325",
    "MEAN_MOTION_DOT": "0.00000258",
    "MEAN_MOTION_DDOT": "0",
    "FILE": "3926571",
    "TLE_LINE0": "0 CRYOSAT 2",
    "TLE_LINE1": "1 36508U 10013A   23157.91552828  .00000258  00000-0  63250-4 0  9990",
    "TLE_LINE2": "2 36508  92.0204   9.9225 0006138 110.2125 249.9742 14.51911893697560",
    "OBJECT_ID": "2010-013A",
    "OBJECT_NUMBER": "36508",
    "SEMIMAJOR_AXIS": "7097.548",
    "PERIOD": "99.180",
    "APOGEE": "723.769",
    "PERIGEE": "715.056",
    "DECAYED": "0"
  },
  {
    "COMMENT": "GENERATED VIA SPACETRACK.ORG API",
    "ORIGINATOR": "18 SPCS",
    "NORAD_CAT_ID": "36508",
    "OBJECT_NAME": "CRYOSAT 2",
    "OBJECT_TYPE": "PAYLOAD",
    "CLASSIFICATION_TYPE": "U",
    "INTLDES": "10013A",
    "EPOCH": "2023-06-07 14:30:48",
    "EPOCH_MICROSECONDS": "177792",
    "MEAN_MOTION": "14.51912303",
    "ECCENTRICITY": "0.000617",
    "INCLINATION": "92.0203",
    "RA_OF_ASC_NODE": "10.0887",
    "ARG_OF_PERICENTER": "108.725",
    "MEAN_ANOMALY": "251.4627",
    "EPHEMERIS_TYPE": "0",
    "ELEMENT_SET_NO": "999",
    "REV_AT_EPOCH": "69766",
    "BSTAR": "0.00006604",
    "MEAN_MOTION_DOT": "0.00000269",
    "MEAN_MOTION_DDOT": "0",
    "FILE": "3927174",
    "TLE_LINE0": "0 CRYOSAT 2",
    "TLE_LINE1": "1 36508U 10013A   23158.60472428  .00000269  00000-0  66040-4 0  9996",
    "TLE_LINE2": "2 36508  92.0203  10.0887 0006170 108.7250 251.4627 14.51912303697661",
    "OBJECT_ID": "2010-013A",
    "OBJECT_NUMBER": "36508",
    "SEMIMAJOR_AXIS": "7097.547",
    "PERIOD": "99.180",
    "APOGEE": "723.791",
    "PERIGEE": "715.032",
    "DECAYED": "0"
  },
  {
    "COMMENT": "GENERATED VIA SPACETRACK.ORG API",
    "ORIGINATOR": "18 SPCS",
    "NORAD_CAT_ID": "36508",
    "OBJECT_NAME": "CRYOSAT 2",
    "OBJECT_TYPE": "PAYLOAD",
    "CLASSIFICATION_TYPE": "U",
    "INTLDES": "10013A",
    "EPOCH": "2023-06-07 21:07:46",
    "EPOCH_MICROSECONDS": "786368",
    "MEAN_MOTION": "14.51912438",
    "ECCENTRICITY": "0.0006183",
    "INCLINATION": "92.0203",
    "RA_OF_ASC_NODE": "10.1551",
    "ARG_OF_PERICENTER": "108.141",
    "MEAN_ANOMALY": "252.0471",
    "EPHEMERIS_TYPE": "0",
    "ELEMENT_SET_NO": "999",
    "REV_AT_EPOCH": "69770",
    "BSTAR": "0.000066037",
    "MEAN_MOTION_DOT": "0.00000269",
    "MEAN_MOTION_DDOT": "0",
    "FILE": "3927436",
    "TLE_LINE0": "0 CRYOSAT 2",
    "TLE_LINE1": "1 36508U 10013A   23158.88040262  .00000269  00000-0  66037-4 0  9999",
    "TLE_LINE2": "2 36508  92.0203  10.1551 0006183 108.1410 252.0471 14.51912438697704",
    "OBJECT_ID": "2010-013A",
    "OBJECT_NUMBER": "36508",
    "SEMIMAJOR_AXIS": "7097.546",
    "PERIOD": "99.180",
    "APOGEE": "723.800",
    "PERIGEE": "715.023",
    "DECAYED": "0"
  },
  {
    "COMMENT": "GENERATED VIA SPACETRACK.ORG API",
    "ORIGINATOR": "18 SPCS",
    "NORAD_CAT_ID": "36508",
    "OBJECT_NAME": "CRYOSAT 2",
    "OBJECT_TYPE": "PAYLOAD",
    "CLASSIFICATION_TYPE": "U",
    "INTLDES": "10013A",
    "EPOCH": "2023-06-08 02:05:30",
    "EPOCH_MICROSECONDS": "740640",
    "MEAN_MOTION": "14.5191256",
    "ECCENTRICITY": "0.0006193",
    "INCLINATION": "92.0203",
    "RA_OF_ASC_NODE": "10.205",
    "ARG_OF_PERICENTER": "107.7202",
    "MEAN_ANOMALY": "252.4681",
    "EPHEMERIS_TYPE": "0",
    "ELEMENT_SET_NO": "999",
    "REV_AT_EPOCH": "69777",
    "BSTAR": "0.000066219",
    "MEAN_MOTION_DOT": "0.0000027",
    "MEAN_MOTION_DDOT": "0",
    "FILE": "3927706",
    "TLE_LINE0": "0 CRYOSAT 2",
    "TLE_LINE1": "1 36508U 10013A   23159.08716135  .00000270  00000-0  66219-4 0  9995",
    "TLE_LINE2": "2 36508  92.0203  10.2050 0006193 107.7202 252.4681 14.51912560697774",
    "OBJECT_ID": "2010-013A",
    "OBJECT_NUMBER": "36508",
    "SEMIMAJOR_AXIS": "7097.546",
    "PERIOD": "99.180",
    "APOGEE": "723.806",
    "PERIGEE": "715.015",
    "DECAYED": "0"
  },
  {
    "COMMENT": "GENERATED VIA SPACETRACK.ORG API",
    "ORIGINATOR": "18 SPCS",
    "NORAD_CAT_ID": "36508",
    "OBJECT_NAME": "CRYOSAT 2",
    "OBJECT_TYPE": "PAYLOAD",
    "CLASSIFICATION_TYPE": "U",
    "INTLDES": "10013A",
    "EPOCH": "2023-06-08 13:40:13",
    "EPOCH_MICROSECONDS": "297440",
    "MEAN_MOTION": "14.51912824",
    "ECCENTRICITY": "0.0006213",
    "INCLINATION": "92.0202",
    "RA_OF_ASC_NODE": "10.3213",
    "ARG_OF_PERICENTER": "106.6508",
    "MEAN_ANOMALY": "253.5381",
    "EPHEMERIS_TYPE": "0",
    "ELEMENT_SET_NO": "999",
    "REV_AT_EPOCH": "69780",
    "BSTAR": "0.000067981",
    "MEAN_MOTION_DOT": "0.00000277",
    "MEAN_MOTION_DDOT": "0",
    "FILE": "3928007",
    "TLE_LINE0": "0 CRYOSAT 2",
    "TLE_LINE1": "1 36508U 10013A   23159.56959835  .00000277  00000-0  67981-4 0  9998",
    "TLE_LINE2": "2 36508  92.0202  10.3213 0006213 106.6508 253.5381 14.51912824697801",
    "OBJECT_ID": "2010-013A",
    "OBJECT_NUMBER": "36508",
    "SEMIMAJOR_AXIS": "7097.545",
    "PERIOD": "99.180",
    "APOGEE": "723.820",
    "PERIGEE": "715.000",
    "DECAYED": "0"
  },
  {
    "COMMENT": "GENERATED VIA SPACETRACK.ORG API",
    "ORIGINATOR": "18 SPCS",
    "NORAD_CAT_ID": "36508",
    "OBJECT_NAME": "CRYOSAT 2",
    "OBJECT_TYPE": "PAYLOAD",
    "CLASSIFICATION_TYPE": "U",
    "INTLDES": "10013A",
    "EPOCH": "2023-06-08 20:17:11",
    "EPOCH_MICROSECONDS": "895648",
    "MEAN_MOTION": "14.51912995",
    "ECCENTRICITY": "0.0006225",
    "INCLINATION": "92.0203",
    "RA_OF_ASC_NODE": "10.3877",
    "ARG_OF_PERICENTER": "106.0592",
    "MEAN_ANOMALY": "254.1301",
    "EPHEMERIS_TYPE": "0",
    "ELEMENT_SET_NO": "999",
    "REV_AT_EPOCH": "69784",
    "BSTAR": "0.000069245",
    "MEAN_MOTION_DOT": "0.00000282",
    "MEAN_MOTION_DDOT": "0",
    "FILE": "3928201",
    "TLE_LINE0": "0 CRYOSAT 2",
    "TLE_LINE1": "1 36508U 10013A   23159.84527657  .00000282  00000-0  69245-4 0  9993",
    "TLE_LINE2": "2 36508  92.0203  10.3877 0006225 106.0592 254.1301 14.51912995697840",
    "OBJECT_ID": "2010-013A",
    "OBJECT_NUMBER": "36508",
    "SEMIMAJOR_AXIS": "7097.544",
    "PERIOD": "99.179",
    "APOGEE": "723.828",
    "PERIGEE": "714.991",
    "DECAYED": "0"
  },
  {
    "COMMENT": "GENERATED VIA SPACETRACK.ORG API",
    "ORIGINATOR": "18 SPCS",
    "NORAD_CAT_ID": "36508",
    "OBJECT_NAME": "CRYOSAT 2",
    "OBJECT_TYPE": "PAYLOAD",
    "CLASSIFICATION_TYPE": "U",
    "INTLDES": "10013A",
    "EPOCH": "2023-06-09 04:33:25",
    "EPOCH_MICROSECONDS": "144704",
    "MEAN_MOTION": "14.51913172",
    "ECCENTRICITY": "0.0006238",
    "INCLINATION": "92.0202",
    "RA_OF_ASC_NODE": "10.4708",
    "ARG_OF_PERICENTER": "105.3202",
    "MEAN_ANOMALY": "254.8695",
    "EPHEMERIS_TYPE": "0",
    "ELEMENT_SET_NO": "999",
    "REV_AT_EPOCH": "69793",
    "BSTAR": "0.000070086",
    "MEAN_MOTION_DOT": "0.00000285",
    "MEAN_MOTION_DDOT": "0",
    "FILE": "3928508",
    "TLE_LINE0": "0 CRYOSAT 2",
    "TLE_LINE1": "1 36508U 10013A   23160.18987436  .00000285  00000-0  70086-4 0  9995",
    "TLE_LINE2": "2 36508  92.0202  10.4708 0006238 105.3202 254.8695 14.51913172697938",
    "OBJECT_ID": "2010-013A",
    "OBJECT_NUMBER": "36508",
    "SEMIMAJOR_AXIS": "7097.544",
    "PERIOD": "99.179",
    "APOGEE": "723.836",
    "PERIGEE": "714.981",
    "DECAYED": "0"
  }
]